XRISM                   
1 57800U 23137A   24267.91948563  .00012355  00000+0  89120-3 0  9990
2 57800  31.0023 103.4225 0009148 103.3371 256.8285 15.02918011 57464
